[{"OBJECT_NAME":"WNISAT 1R","OBJECT_ID":"2017-042L","EPOCH":"2026-03-09T20:41:10.613760","MEAN_MOTION":15.01153186,"ECCENTRICITY":0.00133015,"INCLINATION":97.4515,"RA_OF_ASC_NODE":228.7079,"ARG_OF_PERICENTER":131.3338,"MEAN_ANOMALY":228.9034,"EPHEMERIS_TYPE":0,"CLASSIFICATION_TYPE":"U","NORAD_CAT_ID":42835,"ELEMENT_SET_NO":999,"REV_AT_EPOCH":47160,"BSTAR":0.00037839839,"MEAN_MOTION_DOT":4.802e-5,"MEAN_MOTION_DDOT":0},{"OBJECT_NAME":"STARLINK-32911","OBJECT_ID":"2025-037V","EPOCH":"2026-03-09T22:00:01.999584","MEAN_MOTION":14.98355821,"ECCENTRICITY":0.00031361,"INCLINATION":70.0028,"RA_OF_ASC_NODE":354.065,"ARG_OF_PERICENTER":265.9496,"MEAN_ANOMALY":13.4985,"EPHEMERIS_TYPE":0,"CLASSIFICATION_TYPE":"U","NORAD_CAT_ID":63096,"ELEMENT_SET_NO":999,"REV_AT_EPOCH":576,"BSTAR":-0.002949172,"MEAN_MOTION_DOT":-0.0003513,"MEAN_MOTION_DDOT":0}]
